ORBCOMM FM33            
1 25983U 99065D   25033.89503770  .00003095  00000+0  10306-2 0  9996
2 25983  45.0278 277.1827 0008705 101.7319 258.4508 14.39388418316710
ORBCOMM FM36            
1 25984U 99065E   25033.89114865  .00003859  00000+0  13234-2 0  9991
2 25984  45.0401   7.0582 0005010 333.5900  26.4693 14.37496990315095
ORBCOMM FM35            
1 25985U 99065F   25034.40393969  .00002756  00000+0  97695-3 0  9993
2 25985  45.0405   8.6419 0002435  52.8099 307.2971 14.36571444315731
ORBCOMM FM34            
1 25986U 99065G   25034.44299268  .00002521  00000+0  89681-3 0  9991
2 25986  45.0399   8.9708 0004396   5.8167 354.2732 14.36616514315702
ORBCOMM FM38            
1 33060U 08031A   25034.48292433  .00004358  00000+0  59303-3 0  9995
2 33060  48.4384 232.0114 0006056 186.6706 173.4130 14.80302626894922
ORBCOMM FM41            
1 33061U 08031B   25033.92672751  .00004223  00000+0  58074-3 0  9994
2 33061  48.4417 241.9939 0005090 170.6997 277.5245 14.79922732894349
ORBCOMM FM29            
1 33062U 08031C   25034.13291878  .00004741  00000+0  64762-3 0  9992
2 33062  48.4371 248.9623 0006792 168.8635 344.8810 14.79972983894679
ORBCOMM FM39            
1 33063U 08031D   25034.14358677  .00004078  00000+0  57847-3 0  9994
2 33063  48.4391 271.7691 0007425 142.1436 218.0002 14.78656884894379
