<?xml version="1.0" encoding="UTF-8"?>
<ndm xmlns:xsi="http://www.w3.org/2001/XMLSchema-instance" xsi:noNamespaceSchemaLocation="https://sanaregistry.org/r/ndmxml_unqualified/ndmxml-2.0.0-master-2.0.xsd">
<omm id="CCSDS_OMM_VERS" version="2.0">
<header><CREATION_DATE/><ORIGINATOR/></header><body><segment><metadata><OBJECT_NAME>ORBCOMM FM33</OBJECT_NAME><OBJECT_ID>1999-065D</OBJECT_ID><CENTER_NAME>EARTH</CENTER_NAME><REF_FRAME>TEME</REF_FRAME><TIME_SYSTEM>UTC</TIME_SYSTEM><MEAN_ELEMENT_THEORY>SGP4</MEAN_ELEMENT_THEORY></metadata><data><meanElements><EPOCH>2025-02-02T21:28:51.257280</EPOCH><MEAN_MOTION>14.39388418</MEAN_MOTION><ECCENTRICITY>.0008705</ECCENTRICITY><INCLINATION>45.0278</INCLINATION><RA_OF_ASC_NODE>277.1827</RA_OF_ASC_NODE><ARG_OF_PERICENTER>101.7319</ARG_OF_PERICENTER><MEAN_ANOMALY>258.4508</MEAN_ANOMALY></meanElements><tleParameters><EPHEMERIS_TYPE>0</EPHEMERIS_TYPE><CLASSIFICATION_TYPE>U</CLASSIFICATION_TYPE><NORAD_CAT_ID>25983</NORAD_CAT_ID><ELEMENT_SET_NO>999</ELEMENT_SET_NO><REV_AT_EPOCH>31671</REV_AT_EPOCH><BSTAR>.10306E-2</BSTAR><MEAN_MOTION_DOT>.3095E-4</MEAN_MOTION_DOT><MEAN_MOTION_DDOT>0</MEAN_MOTION_DDOT></tleParameters></data></segment></body></omm>
<omm id="CCSDS_OMM_VERS" version="2.0">
<header><CREATION_DATE/><ORIGINATOR/></header><body><segment><metadata><OBJECT_NAME>ORBCOMM FM36</OBJECT_NAME><OBJECT_ID>1999-065E</OBJECT_ID><CENTER_NAME>EARTH</CENTER_NAME><REF_FRAME>TEME</REF_FRAME><TIME_SYSTEM>UTC</TIME_SYSTEM><MEAN_ELEMENT_THEORY>SGP4</MEAN_ELEMENT_THEORY></metadata><data><meanElements><EPOCH>2025-02-02T21:23:15.243360</EPOCH><MEAN_MOTION>14.37496990</MEAN_MOTION><ECCENTRICITY>.000501</ECCENTRICITY><INCLINATION>45.0401</INCLINATION><RA_OF_ASC_NODE>7.0582</RA_OF_ASC_NODE><ARG_OF_PERICENTER>333.5900</ARG_OF_PERICENTER><MEAN_ANOMALY>26.4693</MEAN_ANOMALY></meanElements><tleParameters><EPHEMERIS_TYPE>0</EPHEMERIS_TYPE><CLASSIFICATION_TYPE>U</CLASSIFICATION_TYPE><NORAD_CAT_ID>25984</NORAD_CAT_ID><ELEMENT_SET_NO>999</ELEMENT_SET_NO><REV_AT_EPOCH>31509</REV_AT_EPOCH><BSTAR>.13234E-2</BSTAR><MEAN_MOTION_DOT>.3859E-4</MEAN_MOTION_DOT><MEAN_MOTION_DDOT>0</MEAN_MOTION_DDOT></tleParameters></data></segment></body></omm>
<omm id="CCSDS_OMM_VERS" version="2.0">
<header><CREATION_DATE/><ORIGINATOR/></header><body><segment><metadata><OBJECT_NAME>ORBCOMM FM35</OBJECT_NAME><OBJECT_ID>1999-065F</OBJECT_ID><CENTER_NAME>EARTH</CENTER_NAME><REF_FRAME>TEME</REF_FRAME><TIME_SYSTEM>UTC</TIME_SYSTEM><MEAN_ELEMENT_THEORY>SGP4</MEAN_ELEMENT_THEORY></metadata><data><meanElements><EPOCH>2025-02-03T09:41:40.389216</EPOCH><MEAN_MOTION>14.36571444</MEAN_MOTION><ECCENTRICITY>.0002435</ECCENTRICITY><INCLINATION>45.0405</INCLINATION><RA_OF_ASC_NODE>8.6419</RA_OF_ASC_NODE><ARG_OF_PERICENTER>52.8099</ARG_OF_PERICENTER><MEAN_ANOMALY>307.2971</MEAN_ANOMALY></meanElements><tleParameters><EPHEMERIS_TYPE>0</EPHEMERIS_TYPE><CLASSIFICATION_TYPE>U</CLASSIFICATION_TYPE><NORAD_CAT_ID>25985</NORAD_CAT_ID><ELEMENT_SET_NO>999</ELEMENT_SET_NO><REV_AT_EPOCH>31573</REV_AT_EPOCH><BSTAR>.97695E-3</BSTAR><MEAN_MOTION_DOT>.2756E-4</MEAN_MOTION_DOT><MEAN_MOTION_DDOT>0</MEAN_MOTION_DDOT></tleParameters></data></segment></body></omm>
<omm id="CCSDS_OMM_VERS" version="2.0">
<header><CREATION_DATE/><ORIGINATOR/></header><body><segment><metadata><OBJECT_NAME>ORBCOMM FM34</OBJECT_NAME><OBJECT_ID>1999-065G</OBJECT_ID><CENTER_NAME>EARTH</CENTER_NAME><REF_FRAME>TEME</REF_FRAME><TIME_SYSTEM>UTC</TIME_SYSTEM><MEAN_ELEMENT_THEORY>SGP4</MEAN_ELEMENT_THEORY></metadata><data><meanElements><EPOCH>2025-02-03T10:37:54.567552</EPOCH><MEAN_MOTION>14.36616514</MEAN_MOTION><ECCENTRICITY>.0004396</ECCENTRICITY><INCLINATION>45.0399</INCLINATION><RA_OF_ASC_NODE>8.9708</RA_OF_ASC_NODE><ARG_OF_PERICENTER>5.8167</ARG_OF_PERICENTER><MEAN_ANOMALY>354.2732</MEAN_ANOMALY></meanElements><tleParameters><EPHEMERIS_TYPE>0</EPHEMERIS_TYPE><CLASSIFICATION_TYPE>U</CLASSIFICATION_TYPE><NORAD_CAT_ID>25986</NORAD_CAT_ID><ELEMENT_SET_NO>999</ELEMENT_SET_NO><REV_AT_EPOCH>31570</REV_AT_EPOCH><BSTAR>.89681E-3</BSTAR><MEAN_MOTION_DOT>.2521E-4</MEAN_MOTION_DOT><MEAN_MOTION_DDOT>0</MEAN_MOTION_DDOT></tleParameters></data></segment></body></omm>
<omm id="CCSDS_OMM_VERS" version="2.0">
<header><CREATION_DATE/><ORIGINATOR/></header><body><segment><metadata><OBJECT_NAME>ORBCOMM FM38</OBJECT_NAME><OBJECT_ID>2008-031A</OBJECT_ID><CENTER_NAME>EARTH</CENTER_NAME><REF_FRAME>TEME</REF_FRAME><TIME_SYSTEM>UTC</TIME_SYSTEM><MEAN_ELEMENT_THEORY>SGP4</MEAN_ELEMENT_THEORY></metadata><data><meanElements><EPOCH>2025-02-03T11:35:24.662112</EPOCH><MEAN_MOTION>14.80302626</MEAN_MOTION><ECCENTRICITY>.0006056</ECCENTRICITY><INCLINATION>48.4384</INCLINATION><RA_OF_ASC_NODE>232.0114</RA_OF_ASC_NODE><ARG_OF_PERICENTER>186.6706</ARG_OF_PERICENTER><MEAN_ANOMALY>173.4130</MEAN_ANOMALY></meanElements><tleParameters><EPHEMERIS_TYPE>0</EPHEMERIS_TYPE><CLASSIFICATION_TYPE>U</CLASSIFICATION_TYPE><NORAD_CAT_ID>33060</NORAD_CAT_ID><ELEMENT_SET_NO>999</ELEMENT_SET_NO><REV_AT_EPOCH>89492</REV_AT_EPOCH><BSTAR>.59303E-3</BSTAR><MEAN_MOTION_DOT>.4358E-4</MEAN_MOTION_DOT><MEAN_MOTION_DDOT>0</MEAN_MOTION_DDOT></tleParameters></data></segment></body></omm>
<omm id="CCSDS_OMM_VERS" version="2.0">
<header><CREATION_DATE/><ORIGINATOR/></header><body><segment><metadata><OBJECT_NAME>ORBCOMM FM41</OBJECT_NAME><OBJECT_ID>2008-031B</OBJECT_ID><CENTER_NAME>EARTH</CENTER_NAME><REF_FRAME>TEME</REF_FRAME><TIME_SYSTEM>UTC</TIME_SYSTEM><MEAN_ELEMENT_THEORY>SGP4</MEAN_ELEMENT_THEORY></metadata><data><meanElements><EPOCH>2025-02-02T22:14:29.256864</EPOCH><MEAN_MOTION>14.79922732</MEAN_MOTION><ECCENTRICITY>.000509</ECCENTRICITY><INCLINATION>48.4417</INCLINATION><RA_OF_ASC_NODE>241.9939</RA_OF_ASC_NODE><ARG_OF_PERICENTER>170.6997</ARG_OF_PERICENTER><MEAN_ANOMALY>277.5245</MEAN_ANOMALY></meanElements><tleParameters><EPHEMERIS_TYPE>0</EPHEMERIS_TYPE><CLASSIFICATION_TYPE>U</CLASSIFICATION_TYPE><NORAD_CAT_ID>33061</NORAD_CAT_ID><ELEMENT_SET_NO>999</ELEMENT_SET_NO><REV_AT_EPOCH>89434</REV_AT_EPOCH><BSTAR>.58074E-3</BSTAR><MEAN_MOTION_DOT>.4223E-4</MEAN_MOTION_DOT><MEAN_MOTION_DDOT>0</MEAN_MOTION_DDOT></tleParameters></data></segment></body></omm>
<omm id="CCSDS_OMM_VERS" version="2.0">
<header><CREATION_DATE/><ORIGINATOR/></header><body><segment><metadata><OBJECT_NAME>ORBCOMM FM29</OBJECT_NAME><OBJECT_ID>2008-031C</OBJECT_ID><CENTER_NAME>EARTH</CENTER_NAME><REF_FRAME>TEME</REF_FRAME><TIME_SYSTEM>UTC</TIME_SYSTEM><MEAN_ELEMENT_THEORY>SGP4</MEAN_ELEMENT_THEORY></metadata><data><meanElements><EPOCH>2025-02-03T03:11:24.182592</EPOCH><MEAN_MOTION>14.79972983</MEAN_MOTION><ECCENTRICITY>.0006792</ECCENTRICITY><INCLINATION>48.4371</INCLINATION><RA_OF_ASC_NODE>248.9623</RA_OF_ASC_NODE><ARG_OF_PERICENTER>168.8635</ARG_OF_PERICENTER><MEAN_ANOMALY>344.8810</MEAN_ANOMALY></meanElements><tleParameters><EPHEMERIS_TYPE>0</EPHEMERIS_TYPE><CLASSIFICATION_TYPE>U</CLASSIFICATION_TYPE><NORAD_CAT_ID>33062</NORAD_CAT_ID><ELEMENT_SET_NO>999</ELEMENT_SET_NO><REV_AT_EPOCH>89467</REV_AT_EPOCH><BSTAR>.64762E-3</BSTAR><MEAN_MOTION_DOT>.4741E-4</MEAN_MOTION_DOT><MEAN_MOTION_DDOT>0</MEAN_MOTION_DDOT></tleParameters></data></segment></body></omm>
<omm id="CCSDS_OMM_VERS" version="2.0">
<header><CREATION_DATE/><ORIGINATOR/></header><body><segment><metadata><OBJECT_NAME>ORBCOMM FM39</OBJECT_NAME><OBJECT_ID>2008-031D</OBJECT_ID><CENTER_NAME>EARTH</CENTER_NAME><REF_FRAME>TEME</REF_FRAME><TIME_SYSTEM>UTC</TIME_SYSTEM><MEAN_ELEMENT_THEORY>SGP4</MEAN_ELEMENT_THEORY></metadata><data><meanElements><EPOCH>2025-02-03T03:26:45.896928</EPOCH><MEAN_MOTION>14.78656884</MEAN_MOTION><ECCENTRICITY>.0007425</ECCENTRICITY><INCLINATION>48.4391</INCLINATION><RA_OF_ASC_NODE>271.7691</RA_OF_ASC_NODE><ARG_OF_PERICENTER>142.1436</ARG_OF_PERICENTER><MEAN_ANOMALY>218.0002</MEAN_ANOMALY></meanElements><tleParameters><EPHEMERIS_TYPE>0</EPHEMERIS_TYPE><CLASSIFICATION_TYPE>U</CLASSIFICATION_TYPE><NORAD_CAT_ID>33063</NORAD_CAT_ID><ELEMENT_SET_NO>999</ELEMENT_SET_NO><REV_AT_EPOCH>89437</REV_AT_EPOCH><BSTAR>.57847E-3</BSTAR><MEAN_MOTION_DOT>.4078E-4</MEAN_MOTION_DOT><MEAN_MOTION_DDOT>0</MEAN_MOTION_DDOT></tleParameters></data></segment></body></omm>

</ndm>
